OBJECT_NAME,OBJECT_ID,EPOCH,MEAN_MOTION,ECCENTRICITY,INCLINATION,RA_OF_ASC_NODE,ARG_OF_PERICENTER,MEAN_ANOMALY,EPHEMERIS_TYPE,CLASSIFICATION_TYPE,NORAD_CAT_ID,ELEMENT_SET_NO,REV_AT_EPOCH,BSTAR,MEAN_MOTION_DOT,MEAN_MOTION_DDOT
STARLINK-2194,2021-017BB,2024-07-07T08:58:53.029632,15.06373036,.0001544,53.0546,66.4339,101.1748,258.9414,0,U,47771,999,18518,.73112E-3,.10617E-3,0
STARLINK-2195,2021-017BC,2024-07-07T23:03:29.576736,15.06412142,.0001542,53.0540,78.7963,81.5973,278.5191,0,U,47772,999,18505,.12423E-2,.18277E-3,0
STARLINK-2196,2021-017BD,2024-07-07T22:58:11.176320,15.06406503,.0001577,53.0538,78.8165,80.8870,279.2298,0,U,47773,999,18505,.10359E-2,.15184E-3,0
STARLINK-2197,2021-017BE,2024-07-07T21:17:20.435712,15.06392248,.0001418,53.0536,79.1315,76.6839,283.4308,0,U,47774,999,18504,.11369E-2,.1669E-3,0
STARLINK-2198,2021-017BF,2024-07-07T23:08:48.076512,15.06410285,.0001544,53.0539,78.7791,81.3288,278.7876,0,U,47775,999,18506,.12071E-2,.17749E-3,0
STARLINK-2209,2021-017BG,2024-07-07T09:27:25.716096,15.06394333,.0001474,53.0539,71.3423,87.1027,273.0131,0,U,47776,999,18576,.83618E-3,.12193E-3,0
STARLINK-2210,2021-017BH,2024-07-07T22:17:03.184512,15.06407266,.0001429,53.0536,68.9402,81.8031,278.3120,0,U,47777,999,18519,.11165E-2,.16391E-3,0
STARLINK-2211,2021-017BJ,2024-07-07T23:04:49.139904,15.06407191,.0001233,53.0545,68.7946,90.9260,269.1870,0,U,47778,999,18520,.8747E-3,.12774E-3,0
STARLINK-2213,2021-017BL,2024-07-07T22:06:26.197920,15.06405934,.0001353,53.0534,68.9739,85.5157,274.5987,0,U,47780,999,18520,.10834E-2,.15895E-3,0
STARLINK-2223,2021-017BM,2024-07-07T21:18:39.692160,15.06413640,.0001655,53.0545,69.1228,86.7448,273.3730,0,U,47781,999,18518,.10738E-2,.15755E-3,0
STARLINK-2257,2021-018A,2024-07-08T00:56:15.902880,15.06407264,.0001309,53.0540,108.4445,82.1212,277.9925,0,U,47787,999,18436,.15136E-3,.1974E-4,0
STARLINK-2314,2021-018B,2024-07-07T22:01:46.957440,15.06413485,.000153,53.0543,83.9912,83.5170,276.5993,0,U,47788,999,18470,.12266E-2,.18042E-3,0
STARLINK-2315,2021-018C,2024-07-08T00:48:18.898848,15.06412348,.000163,53.0561,88.4778,107.2569,252.8599,0,U,47789,999,18464,.10557E-2,.15483E-3,0
STARLINK-2319,2021-018D,2024-07-07T21:01:24.934656,15.06397275,.0001399,53.0541,79.1791,83.5927,276.5221,0,U,47790,999,18476,.11358E-2,.16675E-3,0
STARLINK-2322,2021-018E,2024-07-07T23:04:48.461664,15.06396897,.0001414,53.0545,108.7943,88.5737,271.5414,0,U,47791,999,18435,.19656E-4,.11E-6,0
STARLINK-2334,2021-018F,2024-07-08T00:58:55.729920,15.06408197,.0001613,53.0552,88.4357,74.9384,285.1783,0,U,47792,999,18464,.10928E-2,.16037E-3,0
STARLINK-2338,2021-018G,2024-07-07T22:09:04.853376,15.06408520,.0001349,53.0544,88.9656,86.7618,273.3525,0,U,47793,999,18462,.75598E-3,.10999E-3,0
STARLINK-2347,2021-018J,2024-07-07T02:51:59.077728,15.06381608,.0001507,53.0537,92.5787,76.6845,283.4312,0,U,47795,999,18450,.11645E-2,.17098E-3,0
STARLINK-2373,2021-018K,2024-07-07T20:44:09.244032,15.06408040,.0001557,53.0551,89.2301,88.7244,271.3923,0,U,47796,999,18461,.11058E-2,.16231E-3,0
STARLINK-2377,2021-018L,2024-07-08T00:47:38.268384,15.06407505,.0001502,53.0563,113.4722,101.6581,258.4577,0,U,47797,999,18429,-.86035E-5,-.41E-5,0
STARLINK-2379,2021-018M,2024-07-07T21:00:04.506624,15.06404901,.0001514,53.0553,89.1830,106.7561,253.3594,0,U,47798,999,18461,.74056E-3,.10768E-3,0
STARLINK-2380,2021-018N,2024-07-08T03:16:55.675200,15.06418703,.0001554,53.0551,88.0065,90.6099,269.5068,0,U,47799,999,18465,.12833E-2,.18894E-3,0
STARLINK-2381,2021-018P,2024-07-07T18:15:32.604192,15.06395774,.0001398,53.0546,89.6962,85.1012,275.0136,0,U,47800,999,18461,.11413E-2,.16757E-3,0
STARLINK-2382,2021-018Q,2024-07-06T22:01:18.936192,15.69721523,.0000196,53.0529,52.7951,274.3063,85.7931,0,U,47801,999,18504,.18596E-4,.1667E-4,0
STARLINK-2383,2021-018R,2024-07-08T04:09:19.491264,15.06407877,.0001387,53.0555,112.8446,86.6942,273.4206,0,U,47802,999,18431,.96279E-4,.1153E-4,0
STARLINK-2384,2021-018S,2024-07-08T00:53:37.640544,15.06400751,.0001484,53.0545,88.4546,84.0833,276.0325,0,U,47803,999,18464,.10368E-2,.15196E-3,0
STARLINK-2385,2021-018T,2024-07-07T22:03:46.476288,15.06403673,.0001336,53.0540,88.9812,90.8913,269.2229,0,U,47804,999,18462,.11786E-2,.17319E-3,0
STARLINK-2386,2021-018U,2024-07-07T22:51:35.076384,15.06403770,.0001477,53.0550,89.0785,74.5486,285.5666,0,U,47805,999,18462,.10429E-2,.15288E-3,0
STARLINK-2387,2021-018V,2024-07-08T03:44:07.454112,15.06413740,.000132,53.0531,102.9304,85.4454,274.6686,0,U,47806,999,18445,.1179E-2,.1733E-3,0
STARLINK-2388,2021-018W,2024-07-07T22:42:15.885216,15.06405167,.00017,53.0540,78.8622,84.7408,275.3775,0,U,47807,999,18476,.11164E-2,.16389E-3,0
