STARLINK-2194           
1 47771U 21017BB  24189.37422488  .00010617  00000+0  73112-3 0  9990
2 47771  53.0546  66.4339 0001544 101.1748 258.9414 15.06373036185188
STARLINK-2195           
1 47772U 21017BC  24189.96075899  .00018277  00000+0  12423-2 0  9993
2 47772  53.0540  78.7963 0001542  81.5973 278.5191 15.06412142185059
STARLINK-2196           
1 47773U 21017BD  24189.95707380  .00015184  00000+0  10359-2 0  9990
2 47773  53.0538  78.8165 0001577  80.8870 279.2298 15.06406503185058
STARLINK-2197           
1 47774U 21017BE  24189.88704208  .00016690  00000+0  11369-2 0  9994
2 47774  53.0536  79.1315 0001418  76.6839 283.4308 15.06392248185048
STARLINK-2198           
1 47775U 21017BF  24189.96444533  .00017749  00000+0  12071-2 0  9993
2 47775  53.0539  78.7791 0001544  81.3288 278.7876 15.06410285185067
STARLINK-2209           
1 47776U 21017BG  24189.39404764  .00012193  00000+0  83618-3 0  9997
2 47776  53.0539  71.3423 0001474  87.1027 273.0131 15.06394333185760
STARLINK-2210           
1 47777U 21017BH  24189.92850908  .00016391  00000+0  11165-2 0  9993
2 47777  53.0536  68.9402 0001429  81.8031 278.3120 15.06407266185196
STARLINK-2211           
1 47778U 21017BJ  24189.96167986  .00012774  00000+0  87470-3 0  9999
2 47778  53.0545  68.7946 0001233  90.9260 269.1870 15.06407191185205
STARLINK-2213           
1 47780U 21017BL  24189.92113655  .00015895  00000+0  10834-2 0  9998
2 47780  53.0534  68.9739 0001353  85.5157 274.5987 15.06405934185208
STARLINK-2223           
1 47781U 21017BM  24189.88795940  .00015755  00000+0  10738-2 0  9995
2 47781  53.0545  69.1228 0001655  86.7448 273.3730 15.06413640185181
STARLINK-2257           
1 47787U 21018A   24190.03907295  .00001974  00000+0  15136-3 0  9995
2 47787  53.0540 108.4445 0001309  82.1212 277.9925 15.06407264184365
STARLINK-2314           
1 47788U 21018B   24189.91790460  .00018042  00000+0  12266-2 0  9999
2 47788  53.0543  83.9912 0001530  83.5170 276.5993 15.06413485184709
STARLINK-2315           
1 47789U 21018C   24190.03355207  .00015483  00000+0  10557-2 0  9998
2 47789  53.0561  88.4778 0001630 107.2569 252.8599 15.06412348184646
STARLINK-2319           
1 47790U 21018D   24189.87598304  .00016675  00000+0  11358-2 0  9991
2 47790  53.0541  79.1791 0001399  83.5927 276.5221 15.06397275184763
STARLINK-2322           
1 47791U 21018E   24189.96167201  .00000011  00000+0  19656-4 0  9998
2 47791  53.0545 108.7943 0001414  88.5737 271.5414 15.06396897184351
STARLINK-2334           
1 47792U 21018F   24190.04092280  .00016037  00000+0  10928-2 0  9990
2 47792  53.0552  88.4357 0001613  74.9384 285.1783 15.06408197184640
STARLINK-2338           
1 47793U 21018G   24189.92297284  .00010999  00000+0  75598-3 0  9993
2 47793  53.0544  88.9656 0001349  86.7618 273.3525 15.06408520184627
STARLINK-2347           
1 47795U 21018J   24189.11943377  .00017098  00000+0  11645-2 0  9996
2 47795  53.0537  92.5787 0001507  76.6845 283.4312 15.06381608184503
STARLINK-2373           
1 47796U 21018K   24189.86399588  .00016231  00000+0  11058-2 0  9994
2 47796  53.0551  89.2301 0001557  88.7244 271.3923 15.06408040184613
STARLINK-2377           
1 47797U 21018L   24190.03308181 -.00000410  00000+0 -86035-5 0  9999
2 47797  53.0563 113.4722 0001502 101.6581 258.4577 15.06407505184293
STARLINK-2379           
1 47798U 21018M   24189.87505216  .00010768  00000+0  74056-3 0  9991
2 47798  53.0553  89.1830 0001514 106.7561 253.3594 15.06404901184615
STARLINK-2380           
1 47799U 21018N   24190.13675550  .00018894  00000+0  12833-2 0  9994
2 47799  53.0551  88.0065 0001554  90.6099 269.5068 15.06418703184657
STARLINK-2381           
1 47800U 21018P   24189.76079403  .00016757  00000+0  11413-2 0  9998
2 47800  53.0546  89.6962 0001398  85.1012 275.0136 15.06395774184613
STARLINK-2382           
1 47801U 21018Q   24188.91758028  .00001667  00000+0  18596-4 0  9997
2 47801  53.0529  52.7951 0000196 274.3063  85.7931 15.69721523185048
STARLINK-2383           
1 47802U 21018R   24190.17314226  .00001153  00000+0  96279-4 0  9991
2 47802  53.0555 112.8446 0001387  86.6942 273.4206 15.06407877184312
STARLINK-2384           
1 47803U 21018S   24190.03724121  .00015196  00000+0  10368-2 0  9991
2 47803  53.0545  88.4546 0001484  84.0833 276.0325 15.06400751184641
STARLINK-2385           
1 47804U 21018T   24189.91928792  .00017319  00000+0  11786-2 0  9991
2 47804  53.0540  88.9812 0001336  90.8913 269.2229 15.06403673184629
STARLINK-2386           
1 47805U 21018U   24189.95248931  .00015288  00000+0  10429-2 0  9992
2 47805  53.0550  89.0785 0001477  74.5486 285.5666 15.06403770184626
STARLINK-2387           
1 47806U 21018V   24190.15564183  .00017330  00000+0  11790-2 0  9999
2 47806  53.0531 102.9304 0001320  85.4454 274.6686 15.06413740184451
STARLINK-2388           
1 47807U 21018W   24189.94601719  .00016389  00000+0  11164-2 0  9990
2 47807  53.0540  78.8622 0001700  84.7408 275.3775 15.06405167184764
